#dP2023  7 15  0  0  0.00000000      96 __u+U IGS14 FIT  IAC
## 2270 518400.00000000   900.00000000 60140 0.0000000000000
+  117   C06C07C08C09C10C11C12C13C14C16C19C20C21C22C23C24C25
+        C26C27C28C29C30C32C33C34C35C36C37C38C39C40C41C42C43
+        C44C45C46E02E03E04E05E07E08E09E10E11E12E13E14E15E18
+        E19E21E24E25E26E27E30E31E34E36G01G02G03G04G05G06G07
+        G08G09G10G11G12G13G14G15G16G17G18G19G20G21G22G23G24
+        G25G26G27G28G29G31G32J02J03J04R01R02R03R04R05R07R08
+        R09R11R12R13R14R15R16R17R18R19R20R21R22R24R25  0  0
++         7  8  7  7  8  7  7  7 10  7  6  6  6  6  6  6  6
++         7  6  6  6  6  6  6  6  6  6  6  7  6  7  6  6  6
++         6  6  6  5  4  7  6  6  4  7  6  6  7  4  5  4  7
++         6  6  7  6  5  6  5  6  5  5  4  4  4  5  4  4  6
++         4  5  5  5  5  4  4  6  4  4  5  4  4  4  4  5  4
++         6  6  5  5  6  5  5  9  9  9  8  7  6  6  7  7  7
++         7  7  7  8  7  7  7  7  7  8  8  7  7  7  8  0  0
%c M  cc GPS ccc cccc cccc cccc cccc ccccc ccccc ccccc ccccc
%c cc cc ccc ccc cccc cccc cccc cccc ccccc ccccc ccccc ccccc
%f  1.2500000  1.025000000  0.00000000000  0.000000000000000
%f  0.0000000  0.000000000  0.00000000000  0.000000000000000
%i    0    0    0    0      0      0      0      0         0
%i    0    0    0    0      0      0      0      0         0
/* INFORMATION & ANALYSIS CENTER (IAC)            FINAL DATA
/* S/V CLOCKS ARE ALIGNED TO GNSS TIME                      
/* G:C1WC2W R:C1PC2P E:C1XC5X C:C2IC6I J:C1CC2S             
/* PCV:IGS20_2247 OL/AL:FES2004  NONE     YN ORB:CoN CLK:CoN
*  2023 07 15  4  0  0.00000000
PC06 -14324.092012  23222.978977 -32173.622335    267.135662
PC07 -12371.257423  39955.122619   4310.259342   -324.507559
PC08   2271.700356  32123.935099  27299.358870    427.680249
PC09  -3250.738966  24157.791679 -33988.518677    415.048444
PC10  -7325.718265  40152.238746   9642.600792   -114.862952
PC11  25676.731978  -9351.681378  -5668.014393    726.733617
PC12  24970.819322   2627.588822  12227.408413    789.125814
PC13   7310.284763  35255.083800  22292.597848    315.692630
PC14  16176.886228 -15600.744533 -16571.632429     60.164075
PC16 -15013.086322  22534.437633 -32129.870236      5.469301
PC19 -12860.072412  23094.693212   8921.071325   -939.835765
PC20 -16887.789160   7322.695970  20970.930215    434.902129
PC21  11018.449720  14198.641746 -21329.238344   -934.965246
PC22  -1202.149378  26380.987932  -8975.937061   -395.822353
PC23  -6619.450051 -22534.229732  15082.823117   -943.288339
PC24  21732.728359   5059.464415  16767.573354    174.022391
PC25   9612.439727 -13326.735738  22548.677391    168.184169
PC26  20867.259107  18429.806713   2144.724967   -148.916296
PC27 -19581.947478  -8275.661616 -18104.103007    169.760063
PC28  -1874.223380 -15915.441214 -22845.335995    126.539032
PC29 -18813.342830  15310.329726  13786.566707    147.412898
PC30 -27219.787417   4825.328582  -3890.114813     -2.239687
PC32 -11085.938427 -14250.692097  21294.377542   -539.076651
PC33  12760.702202 -23151.709708  -8975.037149   -913.806792
PC34  27181.700842  -5741.154066   2533.654798    215.041341
PC35   1959.150844  16027.365918  22747.993522    588.315673
PC36 -10551.166526  12486.592902 -22587.021126   -328.828906
PC37 -19991.423139 -19418.282480  -1167.936617   -793.432610
PC38  -5107.413152  28265.698852  30938.770700     91.644185
PC39 -21364.719347  21956.965739 -29017.863377     -3.822848
PC40 -19836.977249  37000.994544   1557.503246    -29.466481
PC41   1545.898778 -26599.622517   8368.624899   -902.712939
PC42  16841.600480  -5844.352775 -21438.174079   -611.981829
PC43  19500.934836 -15065.703652 -13093.071181     30.750957
PC44  19739.550872   7749.798283  18110.136154    169.010911
PC45   7144.040794  22600.124312 -14737.617245     -1.949402
PC46 -21194.945248  -3772.350183 -17732.187228    -68.969439
PE02 -12860.756788 -24143.843408 -11293.066666     49.827321
PE03 -11212.281204 -12771.806342  24234.505810    -36.132431
PE04  23472.095393  -4711.070652 -17403.291890   -166.947802
PE05   7762.817811 -22991.755041  16959.380210     -0.302888
PE07 -22229.797424  19527.355374    515.040594    -60.027035
PE08 -23263.225670   4449.509492  17746.650691   -114.588827
PE09  22274.575387 -19498.052998   -659.078540    -85.027665
PE10  25821.253221  -1456.301495 -14420.279813   -548.597985
PE11  18452.158632  -8633.658039 -21488.197516   2487.728646
PE12  28532.130045   5338.024107  -5773.557357   -618.705714
PE13 -19071.071770   8118.729262  21128.185145    -19.324413
PE14 -21128.965428  -2908.515822 -17939.460970    282.554118
PE15 -28565.856301  -5570.133550   5403.072685    -37.186092
PE18  26283.311521 -12774.194478   6146.478777    297.284666
PE19   8753.667851  14644.969805 -24179.058579  -2074.129106
PE21   1516.199474  28858.289660  -6397.609209   -540.784686
PE24  11828.767637 -16448.446031  21565.530998   -210.132410
PE25  -1261.303647 -28797.066010   6742.926805   -608.310879
PE26   2237.965581  17184.942540  23993.117792    163.334328
PE27 -11376.104386  17125.706042 -21289.819758    -99.477411
PE30 -17485.481147  -5169.083760 -23320.998382   -336.465173
PE31  17435.273806   4562.973211  23491.573044     -0.415619
PE34 -21239.140760 -15779.456834 -13270.369355    -56.140639
PE36  -1459.035575 -16876.503614 -24279.529738    -86.099543
PG01 -20239.204573 -14619.517128  -9892.761816    172.971316
PG02 -16321.745666 -14737.054587 -14497.829440   -576.041632
PG03 -12508.539634 -19288.016184  13264.061705   -232.055909
PG04 -13556.338306  -8202.001765  21343.770329     96.103357
PG05   4982.387835  25981.100223   1365.873186   -134.935001
PG06 -15852.937555   8040.554811  19826.145579    577.800638
PG07 -25696.353534  -5832.990335  -4525.130564    124.794100
PG08  -3317.255081 -16444.462448 -20573.849010   -132.242403
PG09 -20025.482956   1423.610087  17334.116616   -111.931028
PG10  12003.841947 -11246.467698 -20600.918841    -45.203055
PG11   -459.016433  15813.831505  21347.485897   -276.532606
PG12   9664.232016  22387.412494  10343.484123   -400.823630
PG13  -6217.171020  18561.684534 -18034.383641    547.248767
PG14 -14111.487677   7807.713688 -21061.066575    122.637049
PG15   6217.231865  16044.264830 -20647.405116     58.129412
PG16    941.992759 -25812.264292   4742.725657   -480.633171
PG17 -22354.947278  13982.630551  -3193.265348    720.968523
PG18  25139.849725   3713.632550  -8013.835151   -345.923591
PG19 -20166.693727  16598.545900   3514.998797    344.038162
PG20   -224.230916  23950.533668  11711.448813    422.619633
PG21 -14281.580910 -15439.227024 -16188.865592    152.137114
PG22  17435.190680 -18704.749145   7323.593506    512.903524
PG23  15433.260918   2551.723273 -21484.528532     43.398710
PG24  17558.306656  15089.664984 -13745.427587   -258.151731
PG25  15456.486854  10994.758175  18385.190877    456.174564
PG26   6560.338332 -20389.900676  15367.180598    236.426065
PG27   8351.605958 -20457.590854 -14681.252681     -3.311073
PG28  17422.765508  -7919.563399  18395.798112     82.489533
PG29  19271.952152   1257.499241  18227.105709   -605.524708
PG31   6927.262941 -13687.515929  21518.676321   -220.070933
PG32  20608.447389 -16510.023914  -1385.765501   -521.317323
PJ02 -21104.927034  26864.383744 -20035.702922     -1.390473
PJ03 -28860.370563  24805.378249  23125.883886     -0.096242
PJ04 -28942.523837  29170.207822  15299.742262     96.872416
PR01  10302.619644   3876.291670 -23010.864673     61.408693
PR02  15001.620186 -13792.665616 -15256.597587    -22.607595
PR03  10784.793865 -23051.833899   1251.019708     81.541656
PR04   1047.162902 -19262.370331  16711.142617    194.996016
PR05  -9432.779435  -5150.342151  23143.835538    115.777435
PR07 -10514.984549  23182.951970  -1953.475068     60.199445
PR08   -801.018158  19233.349901 -16695.280639    -71.650151
PR09 -12399.927418   1547.816711 -22226.592507    131.232016
PR11  11027.206781  21911.159529  -6949.134861   -104.750405
PR12  16950.405215  14831.420332  12015.805143     29.099212
PR13  13165.165881    591.328794  21831.673874    -37.104929
PR14    426.350972 -16299.669687  19642.315138     24.961714
PR15 -11503.100283 -22048.922805   5721.108701     87.827607
PR16 -16982.912037 -15022.182829 -11709.539896     16.664357
PR17  11386.988574 -10018.169906 -20521.075586     -0.095332
PR18  -6812.046774  -9827.405184 -22529.180892     91.627578
PR19 -20397.894434  -5907.835613 -14130.452856   -239.860554
PR20 -24552.120617   3175.137097   6223.282797    -96.607892
PR21 -10113.466150  10058.291795  21132.176366    -22.791793
PR22   7475.525061  10318.463044  22117.633792     95.283947
PR24  24203.871207  -4441.094996  -6747.381215    -16.566730
PR25 -11840.628175   9761.064371  20369.154655     47.209903
EOF
